[{"OBJECT_NAME":"TDRS 11","OBJECT_ID":"2013-004A","EPOCH":"2026-03-02T16:42:34.078464","MEAN_MOTION":1.00275964,"ECCENTRICITY":0.000391,"INCLINATION":3.3648,"RA_OF_ASC_NODE":29.3196,"ARG_OF_PERICENTER":349.7595,"MEAN_ANOMALY":217.6565,"EPHEMERIS_TYPE":0,"CLASSIFICATION_TYPE":"U","NORAD_CAT_ID":39070,"ELEMENT_SET_NO":999,"REV_AT_EPOCH":4562,"BSTAR":0,"MEAN_MOTION_DOT":6.5e-7,"MEAN_MOTION_DDOT":0},{"OBJECT_NAME":"TDRS 12","OBJECT_ID":"2014-004A","EPOCH":"2026-03-02T17:20:30.441120","MEAN_MOTION":1.00270656,"ECCENTRICITY":0.0003987,"INCLINATION":3.8742,"RA_OF_ASC_NODE":17.2098,"ARG_OF_PERICENTER":266.9061,"MEAN_ANOMALY":95.6183,"EPHEMERIS_TYPE":0,"CLASSIFICATION_TYPE":"U","NORAD_CAT_ID":39504,"ELEMENT_SET_NO":999,"REV_AT_EPOCH":4321,"BSTAR":0,"MEAN_MOTION_DOT":-2.84e-6,"MEAN_MOTION_DDOT":0},{"OBJECT_NAME":"GPM-CORE","OBJECT_ID":"2014-009C","EPOCH":"2026-03-02T18:46:50.545344","MEAN_MOTION":15.44569598,"ECCENTRICITY":0.0012444,"INCLINATION":64.9741,"RA_OF_ASC_NODE":304.6229,"ARG_OF_PERICENTER":264.2311,"MEAN_ANOMALY":95.7411,"EPHEMERIS_TYPE":0,"CLASSIFICATION_TYPE":"U","NORAD_CAT_ID":39574,"ELEMENT_SET_NO":999,"REV_AT_EPOCH":68137,"BSTAR":0.00031828,"MEAN_MOTION_DOT":0.00014689,"MEAN_MOTION_DDOT":0},{"OBJECT_NAME":"MMS 1","OBJECT_ID":"2015-011A","EPOCH":"2026-03-02T22:00:01.999584","MEAN_MOTION":0.28294458,"ECCENTRICITY":0.8414265,"INCLINATION":70.7048,"RA_OF_ASC_NODE":350.2381,"ARG_OF_PERICENTER":165.1728,"MEAN_ANOMALY":259.0083,"EPHEMERIS_TYPE":0,"CLASSIFICATION_TYPE":"U","NORAD_CAT_ID":40482,"ELEMENT_SET_NO":999,"REV_AT_EPOCH":132,"BSTAR":0,"MEAN_MOTION_DOT":-2.075e-5,"MEAN_MOTION_DDOT":0},{"OBJECT_NAME":"MMS 2","OBJECT_ID":"2015-011B","EPOCH":"2026-03-02T22:00:01.999584","MEAN_MOTION":0.28299808,"ECCENTRICITY":0.841501,"INCLINATION":70.7044,"RA_OF_ASC_NODE":350.24,"ARG_OF_PERICENTER":165.184,"MEAN_ANOMALY":258.969,"EPHEMERIS_TYPE":0,"CLASSIFICATION_TYPE":"U","NORAD_CAT_ID":40483,"ELEMENT_SET_NO":999,"REV_AT_EPOCH":132,"BSTAR":0,"MEAN_MOTION_DOT":-2.075e-5,"MEAN_MOTION_DDOT":0},{"OBJECT_NAME":"MMS 3","OBJECT_ID":"2015-011C","EPOCH":"2026-03-02T22:00:01.999584","MEAN_MOTION":0.28299777,"ECCENTRICITY":0.8414296,"INCLINATION":70.7067,"RA_OF_ASC_NODE":350.2447,"ARG_OF_PERICENTER":165.1781,"MEAN_ANOMALY":258.9779,"EPHEMERIS_TYPE":0,"CLASSIFICATION_TYPE":"U","NORAD_CAT_ID":40484,"ELEMENT_SET_NO":999,"REV_AT_EPOCH":132,"BSTAR":0,"MEAN_MOTION_DOT":-2.075e-5,"MEAN_MOTION_DDOT":0},{"OBJECT_NAME":"MMS 4","OBJECT_ID":"2015-011D","EPOCH":"2026-03-02T22:00:01.999584","MEAN_MOTION":0.28294451,"ECCENTRICITY":0.841378,"INCLINATION":70.7056,"RA_OF_ASC_NODE":350.24,"ARG_OF_PERICENTER":165.1804,"MEAN_ANOMALY":258.9861,"EPHEMERIS_TYPE":0,"CLASSIFICATION_TYPE":"U","NORAD_CAT_ID":40485,"ELEMENT_SET_NO":999,"REV_AT_EPOCH":132,"BSTAR":0,"MEAN_MOTION_DOT":-2.075e-5,"MEAN_MOTION_DDOT":0},{"OBJECT_NAME":"TDRS 13","OBJECT_ID":"2017-047A","EPOCH":"2026-03-02T17:28:59.628288","MEAN_MOTION":1.00272006,"ECCENTRICITY":0.001005,"INCLINATION":3.4294,"RA_OF_ASC_NODE":0.0218,"ARG_OF_PERICENTER":99.5766,"MEAN_ANOMALY":311.6727,"EPHEMERIS_TYPE":0,"CLASSIFICATION_TYPE":"U","NORAD_CAT_ID":42915,"ELEMENT_SET_NO":999,"REV_AT_EPOCH":3128,"BSTAR":0,"MEAN_MOTION_DOT":-1.14e-6,"MEAN_MOTION_DDOT":0},{"OBJECT_NAME":"NOAA 20 (JPSS-1)","OBJECT_ID":"2017-073A","EPOCH":"2026-03-02T18:43:00.884640","MEAN_MOTION":14.19533889,"ECCENTRICITY":8.93e-5,"INCLINATION":98.7684,"RA_OF_ASC_NODE":2.2361,"ARG_OF_PERICENTER":145.9894,"MEAN_ANOMALY":214.134,"EPHEMERIS_TYPE":0,"CLASSIFICATION_TYPE":"U","NORAD_CAT_ID":43013,"ELEMENT_SET_NO":999,"REV_AT_EPOCH":42937,"BSTAR":6.1486e-5,"MEAN_MOTION_DOT":8.6e-7,"MEAN_MOTION_DDOT":0}]
